[{"OBJECT_NAME":"STARLINK-6173","OBJECT_ID":"2023-061M","EPOCH":"2026-03-09T22:00:01.999584","MEAN_MOTION":15.1346808,"ECCENTRICITY":0.00019643,"INCLINATION":43.0004,"RA_OF_ASC_NODE":195.625,"ARG_OF_PERICENTER":302.6936,"MEAN_ANOMALY":139.781,"EPHEMERIS_TYPE":0,"CLASSIFICATION_TYPE":"U","NORAD_CAT_ID":56385,"ELEMENT_SET_NO":999,"REV_AT_EPOCH":577,"BSTAR":0.0046220395,"MEAN_MOTION_DOT":0.00084928,"MEAN_MOTION_DDOT":0},{"OBJECT_NAME":"UMBRA-10","OBJECT_ID":"2024-149CH","EPOCH":"2026-03-09T19:51:34.329888","MEAN_MOTION":15.14785965,"ECCENTRICITY":2.209e-5,"INCLINATION":97.6991,"RA_OF_ASC_NODE":154.5958,"ARG_OF_PERICENTER":151.0435,"MEAN_ANOMALY":209.0808,"EPHEMERIS_TYPE":0,"CLASSIFICATION_TYPE":"U","NORAD_CAT_ID":60547,"ELEMENT_SET_NO":999,"REV_AT_EPOCH":8567,"BSTAR":0.0010903051,"MEAN_MOTION_DOT":0.00020207,"MEAN_MOTION_DDOT":0}]
